COMMENT,ORIGINATOR,NORAD_CAT_ID,OBJECT_NAME,OBJECT_TYPE,CLASSIFICATION_TYPE,INTLDES,EPOCH,EPOCH_MICROSECONDS,MEAN_MOTION,ECCENTRICITY,INCLINATION,RA_OF_ASC_NODE,ARG_OF_PERICENTER,MEAN_ANOMALY,EPHEMERIS_TYPE,ELEMENT_SET_NO,REV_AT_EPOCH,BSTAR,MEAN_MOTION_DOT,MEAN_MOTION_DDOT,FILE,TLE_LINE0,TLE_LINE1,TLE_LINE2,OBJECT_ID,OBJECT_NUMBER,SEMIMAJOR_AXIS,PERIOD,APOGEE,PERIGEE,DECAYED
GENERATED VIA SPACETRACK.ORG API,18 SPCS,26998,TIMED,PAYLOAD,U,01055B,5/28/24 12:38,611552,14.9134602,0.0001464,74.0714,300.5378,310.763,49.3425,0,999,21903,0.00017347,0.00001692,0,4329626,0 TIMED,1 26998U 01055B   24149.52654643  .00001692  00000-0  17347-3 0  9993,2 26998  74.0714 300.5378 0001464 310.7630  49.3425 14.91346020219032,2001-055B,26998,6971.875,96.557,594.76,592.719,0
GENERATED VIA SPACETRACK.ORG API,18 SPCS,26998,TIMED,PAYLOAD,U,01055B,5/28/24 12:38,611552,14.9134602,0.0001464,74.0714,300.5378,310.763,49.3425,0,999,21889,0.00017347,0.00001692,0,4329851,0 TIMED,1 26998U 01055B   24149.52654643  .00001692  00000-0  17347-3 0  9993,2 26998  74.0714 300.5378 0001464 310.7630  49.3425 14.91346020218895,2001-055B,26998,6971.875,96.557,594.76,592.719,0
GENERATED VIA SPACETRACK.ORG API,18 SPCS,26998,TIMED,PAYLOAD,U,01055B,5/28/24 20:41,1856,14.91347293,0.0001503,74.0715,299.8667,311.3631,48.7422,0,999,21894,0.00017336,0.00001691,0,4330098,0 TIMED,1 26998U 01055B   24149.86195604  .00001691  00000-0  17336-3 0  9994,2 26998  74.0715 299.8667 0001503 311.3631  48.7422 14.91347293218948,2001-055B,26998,6971.871,96.557,594.783,592.688,0
GENERATED VIA SPACETRACK.ORG API,18 SPCS,26998,TIMED,PAYLOAD,U,01055B,5/29/24 12:47,702976,14.9135012,0.000153,74.0714,298.5245,310.6344,49.4705,0,999,21918,0.00018211,0.00001779,0,4330526,0 TIMED,1 26998U 01055B   24150.53277434  .00001779  00000-0  18211-3 0  9992,2 26998  74.0714 298.5245 0001530 310.6344  49.4705 14.91350120219180,2001-055B,26998,6971.862,96.557,594.793,592.66,0
GENERATED VIA SPACETRACK.ORG API,18 SPCS,26998,TIMED,PAYLOAD,U,01055B,5/29/24 12:47,702976,14.9135012,0.000153,74.0714,298.5245,310.6344,49.4705,0,999,21904,0.00018211,0.00001779,0,4330703,0 TIMED,1 26998U 01055B   24150.53277434  .00001779  00000-0  18211-3 0  9992,2 26998  74.0714 298.5245 0001530 310.6344  49.4705 14.91350120219045,2001-055B,26998,6971.862,96.557,594.793,592.66,0
GENERATED VIA SPACETRACK.ORG API,18 SPCS,26998,TIMED,PAYLOAD,U,01055B,5/29/24 19:13,197248,14.91350675,0.0001525,74.0703,297.9876,310.6249,49.48,0,999,21908,0.00018862,0.00001844,0,4331016,0 TIMED,1 26998U 01055B   24150.80110182  .00001844  00000-0  18862-3 0  9993,2 26998  74.0703 297.9876 0001525 310.6249  49.4800 14.91350675219089,2001-055B,26998,6971.86,96.557,594.788,592.662,0
GENERATED VIA SPACETRACK.ORG API,18 SPCS,26998,TIMED,PAYLOAD,U,01055B,5/30/24 12:56,582720,14.91355667,0.0001567,74.0703,296.511,310.1722,49.9324,0,999,21933,0.0002241,0.00002198,0,4331365,0 TIMED,1 26998U 01055B   24151.53899980  .00002198  00000-0  22410-3 0  9991,2 26998  74.0703 296.5110 0001567 310.1722  49.9324 14.91355667219332,2001-055B,26998,6971.844,96.556,594.802,592.617,0
GENERATED VIA SPACETRACK.ORG API,18 SPCS,26998,TIMED,PAYLOAD,U,01055B,5/30/24 12:56,582720,14.91355667,0.0001567,74.0703,296.511,310.1722,49.9324,0,999,21919,0.0002241,0.00002198,0,4331646,0 TIMED,1 26998U 01055B   24151.53899980  .00002198  00000-0  22410-3 0  9991,2 26998  74.0703 296.5110 0001567 310.1722  49.9324 14.91355667219196,2001-055B,26998,6971.844,96.556,594.802,592.617,0
GENERATED VIA SPACETRACK.ORG API,18 SPCS,26998,TIMED,PAYLOAD,U,01055B,5/30/24 20:59,710368,14.91358335,0.0001589,74.0704,295.8399,310.2463,49.858,0,999,21924,0.00024153,0.00002372,0,4331912,0 TIMED,1 26998U 01055B   24151.87440637  .00002372  00000-0  24153-3 0  9999,2 26998  74.0704 295.8399 0001589 310.2463  49.8580 14.91358335219249,2001-055B,26998,6971.836,96.556,594.809,592.593,0
GENERATED VIA SPACETRACK.ORG API,18 SPCS,26998,TIMED,PAYLOAD,U,01055B,5/31/24 13:05,106496,14.9136069,0.000161,74.0704,294.4977,309.4253,50.6787,0,999,21934,0.0002359,0.00002316,0,4332540,0 TIMED,1 26998U 01055B   24152.54522114  .00002316  00000-0  23590-3 0  9997,2 26998  74.0704 294.4977 0001610 309.4253  50.6787 14.91360690219345,2001-055B,26998,6971.829,96.556,594.816,592.571,0
GENERATED VIA SPACETRACK.ORG API,18 SPCS,26998,TIMED,PAYLOAD,U,01055B,5/31/24 19:31,542880,14.91359398,0.0001617,74.0704,293.9607,309.0149,51.0889,0,999,21952,0.00019976,0.00001955,0,4332677,0 TIMED,1 26998U 01055B   24152.81354795  .00001955  00000-0  19976-3 0  9996,2 26998  74.0704 293.9607 0001617 309.0149  51.0889 14.91359398219527,2001-055B,26998,6971.833,96.556,594.825,592.57,0
GENERATED VIA SPACETRACK.ORG API,18 SPCS,26998,TIMED,PAYLOAD,U,01055B,5/31/24 19:31,542880,14.91359398,0.0001617,74.0704,293.9607,309.0149,51.0889,0,999,21938,0.00019976,0.00001955,0,4333223,0 TIMED,1 26998U 01055B   24152.81354795  .00001955  00000-0  19976-3 0  9996,2 26998  74.0704 293.9607 0001617 309.0149  51.0889 14.91359398219381,2001-055B,26998,6971.833,96.556,594.825,592.57,0
GENERATED VIA SPACETRACK.ORG API,18 SPCS,26998,TIMED,PAYLOAD,U,01055B,6/1/24 13:14,660512,14.91361766,0.0001645,74.0705,292.4843,308.3731,51.7304,0,999,21949,0.00019358,0.00001894,0,4333553,0 TIMED,1 26998U 01055B   24153.55144283  .00001894  00000-0  19358-3 0  9993,2 26998  74.0705 292.4843 0001645 308.3731  51.7304 14.91361766219491,2001-055B,26998,6971.825,96.556,594.837,592.544,0
GENERATED VIA SPACETRACK.ORG API,18 SPCS,26998,TIMED,PAYLOAD,U,01055B,6/1/24 19:40,921504,14.91363071,0.0001711,74.0705,291.9475,309.3935,50.7096,0,999,21967,0.00019764,0.00001934,0,4333590,0 TIMED,1 26998U 01055B   24153.81976761  .00001934  00000-0  19764-3 0  9992,2 26998  74.0705 291.9475 0001711 309.3935  50.7096 14.91363071219675,2001-055B,26998,6971.821,96.556,594.879,592.493,0
GENERATED VIA SPACETRACK.ORG API,18 SPCS,26998,TIMED,PAYLOAD,U,01055B,6/2/24 11:46,70528,14.91365434,0.0001739,74.0706,290.6053,309.2184,50.8844,0,999,21963,0.00019689,0.00001927,0,4334418,0 TIMED,1 26998U 01055B   24154.49057952  .00001927  00000-0  19689-3 0  9997,2 26998  74.0706 290.6053 0001739 309.2184  50.8844 14.91365434219632,2001-055B,26998,6971.814,96.556,594.891,592.467,0
GENERATED VIA SPACETRACK.ORG API,18 SPCS,26998,TIMED,PAYLOAD,U,01055B,6/3/24 11:55,16288,14.91371007,0.0001789,74.0706,288.592,308.3948,51.7074,0,999,21992,0.00022768,0.00002235,0,4335027,0 TIMED,1 26998U 01055B   24155.49679417  .00002235  00000-0  22768-3 0  9999,2 26998  74.0706 288.5920 0001789 308.3948  51.7074 14.91371007219924,2001-055B,26998,6971.797,96.555,594.909,592.414,0
GENERATED VIA SPACETRACK.ORG API,18 SPCS,26998,TIMED,PAYLOAD,U,01055B,6/3/24 15:08,577664,14.9137159,0.0001687,74.0705,288.3238,305.3576,54.7449,0,999,21980,0.00022876,0.00002246,0,4335298,0 TIMED,1 26998U 01055B   24155.63095576  .00002246  00000-0  22876-3 0  9995,2 26998  74.0705 288.3238 0001687 305.3576  54.7449 14.91371590219807,2001-055B,26998,6971.795,96.555,594.836,592.484,0
GENERATED VIA SPACETRACK.ORG API,18 SPCS,26998,TIMED,PAYLOAD,U,01055B,6/3/24 18:21,145952,14.91372241,0.0001694,74.0705,288.0553,305.2539,54.8485,0,999,21982,0.00023106,0.00002269,0,4335600,0 TIMED,1 26998U 01055B   24155.76511743  .00002269  00000-0  23106-3 0  9990,2 26998  74.0705 288.0553 0001694 305.2539  54.8485 14.91372241219827,2001-055B,26998,6971.793,96.555,594.839,592.477,0
GENERATED VIA SPACETRACK.ORG API,18 SPCS,26998,TIMED,PAYLOAD,U,01055B,6/4/24 10:27,940736,14.913754,0.0001737,74.0714,286.7129,304.9535,55.1484,0,999,21992,0.00026269,0.00002585,0,4336232,0 TIMED,1 26998U 01055B   24156.43592524  .00002585  00000-0  26269-3 0  9995,2 26998  74.0714 286.7129 0001737 304.9535  55.1484 14.91375400219925,2001-055B,26998,6971.783,96.555,594.859,592.437,0
GENERATED VIA SPACETRACK.ORG API,18 SPCS,26998,TIMED,PAYLOAD,U,01055B,6/4/24 18:30,786720,14.91377027,0.0001744,74.0714,286.0417,304.8415,55.2604,0,999,22011,0.0002712,0.0000267,0,4336324,0 TIMED,1 26998U 01055B   24156.77132855  .00002670  00000-0  27120-3 0  9991,2 26998  74.0714 286.0417 0001744 304.8415  55.2604 14.91377027220117,2001-055B,26998,6971.778,96.555,594.859,592.427,0
GENERATED VIA SPACETRACK.ORG API,18 SPCS,26998,TIMED,PAYLOAD,U,01055B,6/4/24 18:30,786720,14.91377027,0.0001744,74.0714,286.0417,304.8415,55.2604,0,999,21997,0.0002712,0.0000267,0,4336540,0 TIMED,1 26998U 01055B   24156.77132855  .00002670  00000-0  27120-3 0  9991,2 26998  74.0714 286.0417 0001744 304.8415  55.2604 14.91377027219979,2001-055B,26998,6971.778,96.555,594.859,592.427,0
GENERATED VIA SPACETRACK.ORG API,18 SPCS,26998,TIMED,PAYLOAD,U,01055B,6/5/24 15:26,598272,14.91380876,0.0001786,74.0716,284.2968,303.7773,56.3239,0,999,22010,0.00026194,0.00002578,0,4337216,0 TIMED,1 26998U 01055B   24157.64337498  .00002578  00000-0  26194-3 0  9995,2 26998  74.0716 284.2968 0001786 303.7773  56.3239 14.91380876220102,2001-055B,26998,6971.766,96.555,594.876,592.386,0
GENERATED VIA SPACETRACK.ORG API,18 SPCS,26998,TIMED,PAYLOAD,U,01055B,6/6/24 12:22,144576,14.91386188,0.0001813,74.0718,282.5518,303.47,56.6309,0,999,22037,0.00027877,0.00002746,0,4337965,0 TIMED,1 26998U 01055B   24158.51541834  .00002746  00000-0  27877-3 0  9999,2 26998  74.0718 282.5518 0001813 303.4700  56.6309 14.91386188220376,2001-055B,26998,6971.749,96.554,594.878,592.35,0
GENERATED VIA SPACETRACK.ORG API,18 SPCS,26998,TIMED,PAYLOAD,U,01055B,6/6/24 13:58,858304,14.91386739,0.0001811,74.0717,282.4175,303.4589,56.642,0,999,22024,0.00028334,0.00002792,0,4338169,0 TIMED,1 26998U 01055B   24158.58249836  .00002792  00000-0  28334-3 0  9993,2 26998  74.0717 282.4175 0001811 303.4589  56.6420 14.91386739220248,2001-055B,26998,6971.748,96.554,594.875,592.35,0
